start=new Date('2022-03-30T00:00:00.000Z').valueOf();
sats=[{"TIME_SYSTEM":"UTC","APOAPSIS":"541.112","NORAD_CAT_ID":"49726","EPHEMERIS_TYPE":"0","COUNTRY_CODE":"US","OBJECT_NAME":"STARLINK-3237","OBJECT_TYPE":"PAYLOAD","FILE":"3379484","MEAN_ELEMENT_THEORY":"SGP4","MEAN_ANOMALY":"25.4656","PERIOD":"95.439","MEAN_MOTION":"15.08813990","LAUNCH_DATE":"2021-12-02","DECAY_DATE":null,"ECCENTRICITY":"0.00018600","INCLINATION":"53.2175","GP_ID":"200020769","RA_OF_ASC_NODE":"146.9979","SITE":"AFETR","RCS_SIZE":"LARGE","CENTER_NAME":"EARTH","CLASSIFICATION_TYPE":"U","SEMIMAJOR_AXIS":"6917.960","ARG_OF_PERICENTER":"39.2526","TLE_LINE2":"2 49726  53.2175 146.9979 0001860  39.2526  25.4656 15.08813990  3577","ELEMENT_SET_NO":"999","OBJECT_ID":"2021-115C","REV_AT_EPOCH":"357","REF_FRAME":"TEME","PERIAPSIS":"538.538","EPOCH":"2022-03-29T22:00:00.999936","TLE_LINE1":"1 49726U 21115C   22088.91667824  .00011746  00000-0  75541-3 0  9995","BSTAR":"0.00075541000000","MEAN_MOTION_DDOT":"0.0000000000000","MEAN_MOTION_DOT":"0.00011746"},{"FILE":"3379484","MEAN_ELEMENT_THEORY":"SGP4","MEAN_ANOMALY":"0.5802","OBJECT_NAME":"STARLINK-3242","OBJECT_TYPE":"PAYLOAD","EPHEMERIS_TYPE":"0","COUNTRY_CODE":"US","TIME_SYSTEM":"UTC","APOAPSIS":"541.086","NORAD_CAT_ID":"49727","SITE":"AFETR","RCS_SIZE":"LARGE","CENTER_NAME":"EARTH","CLASSIFICATION_TYPE":"U","GP_ID":"200021019","RA_OF_ASC_NODE":"147.0058","LAUNCH_DATE":"2021-12-02","DECAY_DATE":null,"INCLINATION":"53.2168","ECCENTRICITY":"0.00018940","PERIOD":"95.438","MEAN_MOTION":"15.08830044","REV_AT_EPOCH":"357","REF_FRAME":"TEME","PERIAPSIS":"538.466","OBJECT_ID":"2021-115D","ARG_OF_PERICENTER":"44.1131","TLE_LINE2":"2 49727  53.2168 147.0058 0001894  44.1131   0.5802 15.08830044  3570","ELEMENT_SET_NO":"999","SEMIMAJOR_AXIS":"6917.911","MEAN_MOTION_DOT":"0.00011775","BSTAR":"0.00075690000000","MEAN_MOTION_DDOT":"0.0000000000000","EPOCH":"2022-03-29T22:00:00.999936","TLE_LINE1":"1 49727U 21115D   22088.91667824  .00011775  00000-0  75690-3 0  9993"},{"SEMIMAJOR_AXIS":"6917.918","ARG_OF_PERICENTER":"54.1750","TLE_LINE2":"2 49728  53.2172 147.0100 0001345  54.1750 330.4968 15.08827716  3573","ELEMENT_SET_NO":"999","OBJECT_ID":"2021-115E","REV_AT_EPOCH":"357","REF_FRAME":"TEME","PERIAPSIS":"538.852","EPOCH":"2022-03-29T22:00:00.999936","TLE_LINE1":"1 49728U 21115E   22088.91667824  .00011484  00000-0  73870-3 0  9999","BSTAR":"0.00073870000000","MEAN_MOTION_DDOT":"0.0000000000000","MEAN_MOTION_DOT":"0.00011484","TIME_SYSTEM":"UTC","NORAD_CAT_ID":"49728","APOAPSIS":"540.713","EPHEMERIS_TYPE":"0","COUNTRY_CODE":"US","OBJECT_NAME":"STARLINK-3240","OBJECT_TYPE":"PAYLOAD","FILE":"3379484","MEAN_ELEMENT_THEORY":"SGP4","MEAN_ANOMALY":"330.4968","PERIOD":"95.438","MEAN_MOTION":"15.08827716","LAUNCH_DATE":"2021-12-02","DECAY_DATE":null,"INCLINATION":"53.2172","ECCENTRICITY":"0.00013450","GP_ID":"200021771","RA_OF_ASC_NODE":"147.0100","RCS_SIZE":"LARGE","SITE":"AFETR","CLASSIFICATION_TYPE":"U","CENTER_NAME":"EARTH"},{"RA_OF_ASC_NODE":"147.0098","GP_ID":"200022019","RCS_SIZE":"LARGE","SITE":"AFETR","CENTER_NAME":"EARTH","CLASSIFICATION_TYPE":"U","MEAN_MOTION":"15.08821523","PERIOD":"95.439","LAUNCH_DATE":"2021-12-02","ECCENTRICITY":"0.00023430","INCLINATION":"53.2161","DECAY_DATE":null,"OBJECT_NAME":"STARLINK-3251","OBJECT_TYPE":"PAYLOAD","MEAN_ELEMENT_THEORY":"SGP4","FILE":"3379484","MEAN_ANOMALY":"332.8316","NORAD_CAT_ID":"49729","APOAPSIS":"541.423","TIME_SYSTEM":"UTC","EPHEMERIS_TYPE":"0","COUNTRY_CODE":"US","MEAN_MOTION_DOT":"0.00010968","EPOCH":"2022-03-29T22:00:00.999936","TLE_LINE1":"1 49729U 21115F   22088.91667824  .00010968  00000-0  70648-3 0  9996","MEAN_MOTION_DDOT":"0.0000000000000","BSTAR":"0.00070648000000","OBJECT_ID":"2021-115F","REF_FRAME":"TEME","REV_AT_EPOCH":"1899","PERIAPSIS":"538.181","SEMIMAJOR_AXIS":"6917.937","ARG_OF_PERICENTER":"31.8676","ELEMENT_SET_NO":"999","TLE_LINE2":"2 49729  53.2161 147.0098 0002343  31.8676 332.8316 15.08821523 18991"},{"LAUNCH_DATE":"2021-12-02","DECAY_DATE":null,"INCLINATION":"53.2148","ECCENTRICITY":"0.00020760","PERIOD":"95.438","MEAN_MOTION":"15.08831176","RCS_SIZE":"LARGE","SITE":"AFETR","CENTER_NAME":"EARTH","CLASSIFICATION_TYPE":"U","GP_ID":"200021269","RA_OF_ASC_NODE":"147.0091","EPHEMERIS_TYPE":"0","COUNTRY_CODE":"US","TIME_SYSTEM":"UTC","APOAPSIS":"541.209","NORAD_CAT_ID":"49730","FILE":"3379484","MEAN_ELEMENT_THEORY":"SGP4","MEAN_ANOMALY":"287.8806","OBJECT_NAME":"STARLINK-3249","OBJECT_TYPE":"PAYLOAD","BSTAR":"-0.00198500000000","MEAN_MOTION_DDOT":"0.0000000000000","EPOCH":"2022-03-29T22:00:00.999936","TLE_LINE1":"1 49730U 21115G   22088.91667824 -.00031734  00000-0 -19850-2 0  9991","MEAN_MOTION_DOT":"-0.00031734","ARG_OF_PERICENTER":"36.8530","TLE_LINE2":"2 49730  53.2148 147.0091 0002076  36.8530 287.8806 15.08831176  3563","ELEMENT_SET_NO":"999","SEMIMAJOR_AXIS":"6917.907","REV_AT_EPOCH":"356","REF_FRAME":"TEME","PERIAPSIS":"538.336","OBJECT_ID":"2021-115G"},{"MEAN_ANOMALY":"312.4482","FILE":"3379484","MEAN_ELEMENT_THEORY":"SGP4","OBJECT_TYPE":"PAYLOAD","OBJECT_NAME":"STARLINK-3228","COUNTRY_CODE":"US","EPHEMERIS_TYPE":"0","TIME_SYSTEM":"UTC","APOAPSIS":"541.130","NORAD_CAT_ID":"49731","CLASSIFICATION_TYPE":"U","CENTER_NAME":"EARTH","RCS_SIZE":"LARGE","SITE":"AFETR","GP_ID":"200021519","RA_OF_ASC_NODE":"147.0136","DECAY_DATE":null,"ECCENTRICITY":"0.00019250","INCLINATION":"53.2168","LAUNCH_DATE":"2021-12-02","PERIOD":"95.439","MEAN_MOTION":"15.08822534","PERIAPSIS":"538.467","REV_AT_EPOCH":"356","REF_FRAME":"TEME","OBJECT_ID":"2021-115H","TLE_LINE2":"2 49731  53.2168 147.0136 0001925  32.2453 312.4482 15.08822534  3565","ELEMENT_SET_NO":"999","ARG_OF_PERICENTER":"32.2453","SEMIMAJOR_AXIS":"6917.934","MEAN_MOTION_DOT":"0.00011970","MEAN_MOTION_DDOT":"0.0000000000000","BSTAR":"0.00076923000000","TLE_LINE1":"1 49731U 21115H   22088.91667824  .00011970  00000-0  76923-3 0  9995","EPOCH":"2022-03-29T22:00:00.999936"},{"ARG_OF_PERICENTER":"46.3646","TLE_LINE2":"2 49732  53.2114 147.0204 0001606  46.3646 218.3205 15.08825216  3566","ELEMENT_SET_NO":"999","SEMIMAJOR_AXIS":"6917.926","REV_AT_EPOCH":"356","REF_FRAME":"TEME","PERIAPSIS":"538.680","OBJECT_ID":"2021-115J","BSTAR":"0.00071706000000","MEAN_MOTION_DDOT":"0.0000000000000","EPOCH":"2022-03-29T22:00:00.999936","TLE_LINE1":"1 49732U 21115J   22088.91667824  .00011138  00000-0  71706-3 0  9996","MEAN_MOTION_DOT":"0.00011138","EPHEMERIS_TYPE":"0","COUNTRY_CODE":"US","TIME_SYSTEM":"UTC","APOAPSIS":"540.902","NORAD_CAT_ID":"49732","FILE":"3379484","MEAN_ELEMENT_THEORY":"SGP4","MEAN_ANOMALY":"218.3205","OBJECT_NAME":"STARLINK-3246","OBJECT_TYPE":"PAYLOAD","LAUNCH_DATE":"2021-12-02","DECAY_DATE":null,"ECCENTRICITY":"0.00016060","INCLINATION":"53.2114","PERIOD":"95.438","MEAN_MOTION":"15.08825216","SITE":"AFETR","RCS_SIZE":"LARGE","CLASSIFICATION_TYPE":"U","CENTER_NAME":"EARTH","GP_ID":"200022272","RA_OF_ASC_NODE":"147.0204"},{"ELEMENT_SET_NO":"999","TLE_LINE2":"2 49733  53.2134 147.0187 0001942  36.2161 268.5033 15.08810338  3567","ARG_OF_PERICENTER":"36.2161","SEMIMAJOR_AXIS":"6917.971","PERIAPSIS":"538.493","REF_FRAME":"TEME","REV_AT_EPOCH":"356","OBJECT_ID":"2021-115K","BSTAR":"0.00069467000000","MEAN_MOTION_DDOT":"0.0000000000000","TLE_LINE1":"1 49733U 21115K   22088.91667824  .00010776  00000-0  69467-3 0  9995","EPOCH":"2022-03-29T22:00:00.999936","MEAN_MOTION_DOT":"0.00010776","COUNTRY_CODE":"US","EPHEMERIS_TYPE":"0","APOAPSIS":"541.180","NORAD_CAT_ID":"49733","TIME_SYSTEM":"UTC","MEAN_ANOMALY":"268.5033","MEAN_ELEMENT_THEORY":"SGP4","FILE":"3379484","OBJECT_TYPE":"PAYLOAD","OBJECT_NAME":"STARLINK-3252","INCLINATION":"53.2134","ECCENTRICITY":"0.00019420","DECAY_DATE":null,"LAUNCH_DATE":"2021-12-02","MEAN_MOTION":"15.08810338","PERIOD":"95.439","CLASSIFICATION_TYPE":"U","CENTER_NAME":"EARTH","RCS_SIZE":"LARGE","SITE":"AFETR","RA_OF_ASC_NODE":"147.0187","GP_ID":"200022520"},{"MEAN_MOTION_DOT":"0.00026347","MEAN_MOTION_DDOT":"0.0000000000000","BSTAR":"0.00166820000000","EPOCH":"2022-03-29T22:00:00.999936","TLE_LINE1":"1 49734U 21115L   22088.91667824  .00026347  00000-0  16682-2 0  9997","REF_FRAME":"TEME","REV_AT_EPOCH":"1914","PERIAPSIS":"538.514","OBJECT_ID":"2021-115L","ARG_OF_PERICENTER":"37.5270","ELEMENT_SET_NO":"999","TLE_LINE2":"2 49734  53.2176 136.9883 0001869  37.5270 162.1509 15.08819995 19143","SEMIMAJOR_AXIS":"6917.942","RCS_SIZE":"LARGE","SITE":"AFETR","CLASSIFICATION_TYPE":"U","CENTER_NAME":"EARTH","RA_OF_ASC_NODE":"136.9883","GP_ID":"199996750","LAUNCH_DATE":"2021-12-02","INCLINATION":"53.2176","ECCENTRICITY":"0.00018690","DECAY_DATE":null,"MEAN_MOTION":"15.08819995","PERIOD":"95.439","MEAN_ELEMENT_THEORY":"SGP4","FILE":"3379443","MEAN_ANOMALY":"162.1509","OBJECT_NAME":"STARLINK-3238","OBJECT_TYPE":"PAYLOAD","EPHEMERIS_TYPE":"0","COUNTRY_CODE":"US","NORAD_CAT_ID":"49734","APOAPSIS":"541.100","TIME_SYSTEM":"UTC"},{"BSTAR":"-0.00209760000000","MEAN_MOTION_DDOT":"0.0000000000000","EPOCH":"2022-03-29T22:00:00.999936","TLE_LINE1":"1 49735U 21115M   22088.91667824 -.00033524  00000-0 -20976-2 0  9996","MEAN_MOTION_DOT":"-0.00033524","ARG_OF_PERICENTER":"40.0172","TLE_LINE2":"2 49735  53.2110 147.0129 0002079  40.0172 244.6404 15.08847328  3562","ELEMENT_SET_NO":"999","SEMIMAJOR_AXIS":"6917.858","REV_AT_EPOCH":"356","REF_FRAME":"TEME","PERIAPSIS":"538.285","OBJECT_ID":"2021-115M","LAUNCH_DATE":"2021-12-02","DECAY_DATE":null,"ECCENTRICITY":"0.00020790","INCLINATION":"53.2110","PERIOD":"95.437","MEAN_MOTION":"15.08847328","SITE":"AFETR","RCS_SIZE":"LARGE","CENTER_NAME":"EARTH","CLASSIFICATION_TYPE":"U","GP_ID":"200021020","RA_OF_ASC_NODE":"147.0129","EPHEMERIS_TYPE":"0","COUNTRY_CODE":"US","TIME_SYSTEM":"UTC","NORAD_CAT_ID":"49735","APOAPSIS":"541.161","FILE":"3379484","MEAN_ELEMENT_THEORY":"SGP4","MEAN_ANOMALY":"244.6404","OBJECT_NAME":"STARLINK-3113","OBJECT_TYPE":"PAYLOAD"}];
